[{"OBJECT_NAME":"AFR-1","OBJECT_ID":"2023-084AJ","EPOCH":"2026-03-09T23:02:07.499328","MEAN_MOTION":15.27543824,"ECCENTRICITY":0.00099838,"INCLINATION":97.6099,"RA_OF_ASC_NODE":203.4313,"ARG_OF_PERICENTER":334.9676,"MEAN_ANOMALY":25.1077,"EPHEMERIS_TYPE":0,"CLASSIFICATION_TYPE":"U","NORAD_CAT_ID":56964,"ELEMENT_SET_NO":999,"REV_AT_EPOCH":15207,"BSTAR":0.00024843733,"MEAN_MOTION_DOT":6.624e-5,"MEAN_MOTION_DDOT":0},{"OBJECT_NAME":"STARLINK-34165","OBJECT_ID":"2025-101D","EPOCH":"2026-03-09T16:00:03.000096","MEAN_MOTION":15.27542503,"ECCENTRICITY":0.00017788,"INCLINATION":43.0037,"RA_OF_ASC_NODE":357.7874,"ARG_OF_PERICENTER":272.4604,"MEAN_ANOMALY":146.8496,"EPHEMERIS_TYPE":0,"CLASSIFICATION_TYPE":"U","NORAD_CAT_ID":63997,"ELEMENT_SET_NO":999,"REV_AT_EPOCH":577,"BSTAR":0.0015048177,"MEAN_MOTION_DOT":0.00041332,"MEAN_MOTION_DDOT":0}]
